{
    "links": {
        "self": "http://www.neowsapp.com/rest/v1/neo/3782066?api_key=iIulBulltgU6a56xZRHN4H3l9WmuAYTsLGpBGhQ2"
    },
    "id": "3782066",
    "neo_reference_id": "3782066",
    "name": "(2017 TH1)",
    "designation": "2017 TH1",
    "nasa_jpl_url": "http://ssd.jpl.nasa.gov/sbdb.cgi?sstr=3782066",
    "absolute_magnitude_h": 25.3,
    "estimated_diameter": {
        "kilometers": {
            "estimated_diameter_min": 0.0231502122,
            "estimated_diameter_max": 0.0517654482
        },
        "meters": {
            "estimated_diameter_min": 23.150212221,
            "estimated_diameter_max": 51.7654482198
        },
        "miles": {
            "estimated_diameter_min": 0.0143848705,
            "estimated_diameter_max": 0.0321655483
        },
        "feet": {
            "estimated_diameter_min": 75.9521422633,
            "estimated_diameter_max": 169.8341531374
        }
    },
    "is_potentially_hazardous_asteroid": false,
    "close_approach_data": [
        {
            "close_approach_date": "2017-10-06",
            "close_approach_date_full": "2017-Oct-06 08:19",
            "epoch_date_close_approach": 1507277940000,
            "relative_velocity": {
                "kilometers_per_second": "8.8734681072",
                "kilometers_per_hour": "31944.4851860996",
                "miles_per_hour": "19849.0608091073"
            },
            "miss_distance": {
                "astronomical": "0.0431459698",
                "lunar": "16.7837822522",
                "kilometers": "6454545.181164326",
                "miles": "4010668.3984106588"
            },
            "orbiting_body": "Earth"
        }
    ],
    "orbital_data": {
        "orbit_id": "1",
        "orbit_determination_date": "2017-10-07 16:12:08",
        "first_observation_date": "2017-10-02",
        "last_observation_date": "2017-10-07",
        "data_arc_in_days": 5,
        "observations_used": 50,
        "orbit_uncertainty": "7",
        "minimum_orbit_intersection": ".0358584",
        "jupiter_tisserand_invariant": "3.168",
        "epoch_osculation": "2459000.5",
        "eccentricity": ".5916021998801755",
        "semi_major_axis": "2.52935196284945",
        "inclination": "8.742061216956758",
        "ascending_node_longitude": "198.6914053438965",
        "orbital_period": "1469.306250862024",
        "perihelion_distance": "1.032981777356475",
        "perihelion_argument": "182.2522384609331",
        "aphelion_distance": "4.025722148342424",
        "perihelion_time": "2459507.548820742415",
        "mean_anomaly": "235.7661478945068",
        "mean_motion": ".245013590453857",
        "equinox": "J2000",
        "orbit_class": {
            "orbit_class_type": "AMO",
            "orbit_class_description": "Near-Earth asteroid orbits similar to that of 1221 Amor",
            "orbit_class_range": "1.017 AU < q (perihelion) < 1.3 AU"
        }
    },
    "is_sentry_object": false
}